#dP2020  4 11  0  0  0.00000000      96 __u+U ITR00 FIT  IAC
## 2100 518400.00000000   900.00000000 58950 0.0000000000000
+  117   C01C02C03C05C06C07C08C09C10C11C12C13C14C16C19C20C21
+        C22C23C24C25C26C27C28C29C30C32C33C34C35C36C37C44C46
+        E01E02E03E04E05E07E08E09E11E12E13E14E15E18E19E21E24
+        E25E26E27E30E31E33E36G01G02G03G04G05G06G07G08G09G10
+        G11G12G13G14G15G16G17G18G19G20G21G22G23G24G25G26G27
+        G28G29G30G31G32J01J02J03J07R01R02R03R04R05R07R08R09
+        R11R12R13R14R15R16R17R18R19R20R21R22R23R24R26  0  0
++        14 13 13 13  9  8  8  8  8  8  8  8  8  8  8  8  8
++         8  7  8  8  8  7  7  8  8  8  8  8  8  8  8  0  9
++         4  5  5  4  5  5  5  5  4  4  6  5  5  4  4  5  5
++         5  5  5  4  4  5  5  3  3  3  3  4  3  4  3  3  4
++         4  3  4  3  4  4  4  3  3  4  3  4  4  4  3  3  4
++         4  4  3  3  4  9  9  9 13  6  5  5  6  6  6  6  5
++         6  5  6  5  6  6  5  5  6  6  6  0  6  0  8  0  0
%c M  cc GPS ccc cccc cccc cccc cccc ccccc ccccc ccccc ccccc
%c cc cc ccc ccc cccc cccc cccc cccc ccccc ccccc ccccc ccccc
%f  0.0000000  0.000000000  0.00000000000  0.000000000000000
%f  0.0000000  0.000000000  0.00000000000  0.000000000000000
%i    0    0    0    0      0      0      0      0         0
%i    0    0    0    0      0      0      0      0         0
/* INFORMATION & ANALYSIS CENTER (IAC)            RAPID DATA
/* S/V CLOCKS ARE ALIGNED TO GNSS TIME                      
/* G:C1WC2W R:C1PC2P E:C1XC5X C:C2IC6I J:C1CC2S             
/* PCV:IGS14_2097 OL/AL:FES2004  NONE     YN ORB:CoN CLK:CoN
*  2020 04 11 12 15  0.00000000
PC01 -34292.149784  24499.353394   -674.636490   -614.734972
PC02   4362.695864  41944.883279    517.680318    423.233465
PC03 -14760.817582  39469.730230    945.462527    348.281288
PC05  21859.504567  36055.457334    298.209869   -274.817191
PC06 -24982.125604  25983.367831 -21825.103515    243.784104
PC07 -14212.266818  36969.511403 -13545.613142    871.585957
PC08  -8378.816179  20682.688992  35901.520402   -196.491840
PC09  -9261.121621  26480.189703 -31333.657812    465.048701
PC10  -3816.999786  41761.887279   -336.882179   -845.878120
PC11 -18886.309695  12197.780470  16560.397660   -296.469973
PC12 -27822.281567   1987.277971   -371.498741    348.093493
PC13   5385.749360  28957.725743  30364.972487    375.414757
PC14 -15365.724560  22305.468577   6626.046326    287.204135
PC16 -20800.829451  26761.503491 -25123.113052   -684.781412
PC19   9947.023907 -25962.567557   2534.597537    379.084078
PC20  18058.807032 -16030.633714 -13990.665230   -915.062010
PC21 -15671.284216  -3913.427887  22778.113067   -272.799648
PC22  -4048.118147 -21034.976592  17912.248091   -839.072028
PC23  13529.929613  24152.517419  -3515.102037   -916.375205
PC24 -15803.816795   5133.164240 -22426.714396   -862.407338
PC25   -702.737622  21097.478302 -18267.159493   -579.361151
PC26 -20928.374836 -12259.373281 -13778.755404    640.089292
PC27  25927.602426   4573.760227   9200.425328    311.021881
PC28  11098.394592  14054.686368  21404.954293    302.022947
PC29   9555.860290 -15666.699429 -21027.313972    213.431915
PC30  25372.454180  -8329.217953  -8057.203884    300.458071
PC32  15719.078490   3733.081037 -22733.629533   -922.592338
PC33  -9885.605397  25972.271452  -2416.299786   -873.690802
PC34 -25219.260142   8506.035019   8433.885985   -623.804834
PC35 -11444.075310 -13772.123693 -21413.568140   -896.660502
PC36   1405.832185 -20938.149628  18416.922439   -821.834516
PC37  20629.314397  13327.211736  13277.434840   -846.027516
PC44      0.000000      0.000000      0.000000 999999.999999
PC46  15473.861241  -5500.811013  22570.006967    891.279805
PE01  16906.373139   8536.409561  22744.460527   -833.689044
PE02 -16914.636773  -8418.813691 -22787.385627    125.700772
PE03 -22559.575286   1280.176690  19117.055608   -286.740449
PE04  23909.972937 -17143.291699  -3251.485725   -503.350911
PE05  -7965.584138 -15497.340787  23933.603562   -389.547440
PE07 -11181.437653  23100.363307 -14730.129094   -366.704685
PE08 -23720.084007  17424.445940   3091.262575   6193.886352
PE09  11009.365536 -23116.958935  14873.345645   6096.475237
PE11   1964.004647 -16449.324760 -24533.908386   2212.658358
PE12  21801.239298  -5761.950765 -19156.369185   5859.505500
PE13  -2198.742614  16293.731964  24621.474938    399.978662
PE14 -25760.311511   7945.036383  -2074.377764   -973.712931
PE15 -21637.793918   5928.479125  19324.922018    870.845900
PE18  20570.407909 -18494.564445 -12698.393306  -1072.214138
PE19  21480.941528    516.239936 -20349.490238   -423.937563
PE21  11126.951241  25701.866989   9578.823186   -592.917662
PE24   1547.780561 -27984.122317   9470.200576   5512.984778
PE25 -11070.490992 -25761.406551  -9479.431736   -508.889905
PE26  18714.477557  17245.423282  15121.229255   3314.776318
PE27  -1280.124672  28058.899623  -9356.661936    243.161737
PE30 -13122.629147  13604.813425 -22796.247649   3994.767467
PE31  12886.458584 -13923.720556  22722.013684   -472.249647
PE33  28383.214186   7938.089681  -2659.517029   -468.529339
PE36 -18568.284752 -17103.032160 -15456.845090    574.346264
PG01 -22108.415671 -14969.493378   1346.786035   -354.575178
PG02   6992.880578  19035.395643  17826.342802   -437.626074
PG03 -13067.905079 -10948.479447  20335.223333   -142.680442
PG04 -21113.567530  -3232.792171  15815.242585    -74.709021
PG05   2563.271578  25660.873673  -6036.485554    -10.673434
PG06  -4136.434938  14910.672997  21636.237439   -250.451154
PG07 -21163.060306  -1483.289544 -15976.360486   -256.224915
PG08 -11753.167521 -10628.580475 -21335.526270    -30.266703
PG09 -24870.271486   6389.742431   6778.230821   -195.572060
PG10  11573.911992 -19204.355283 -13965.559510   -306.811894
PG11 -19111.748826 -13250.636922 -13044.963115   -308.262609
PG12  11162.301249  13562.132118  19740.026835    130.470263
PG13   2874.568324  14891.613834 -21919.838404      1.261469
PG14  11921.860374 -16860.378478  16939.927293    -20.299559
PG15  13797.848577   9947.755463 -20778.565846   -238.727623
PG16   -390.741732 -25271.678568  -7580.915137   -145.368838
PG17 -20086.148938  14648.949158   9701.475937    246.996337
PG18  22285.988663   4983.292903 -13601.435609    152.449487
PG19 -14549.033512  15701.944513  15420.956172   -173.528126
PG20  14812.056756  -8525.303369 -20363.421695    527.819564
PG21  20567.982757   -493.096375 -15859.416048    -15.627751
PG22 -11051.796886 -19029.922370  15181.458233   -784.873911
PG23 -23550.299235    840.433230  13043.213621   -122.939219
PG24  22273.424556  14816.939657   -898.169055    -11.546125
PG25  14922.678213   1438.528880  21683.796182     -3.839161
PG26   4641.242636 -25700.840457   4083.942057    185.413111
PG27   -102.226096 -15791.642629 -21431.383432   -263.904713
PG28 -12151.108799  20042.443209 -12044.068873    726.188920
PG29  24806.104179  -2838.261134   9044.166094    -78.469160
PG30 -13705.372937   8810.785161 -20970.677265   -195.975304
PG31   3095.781891 -16024.750509  20824.300118    -35.328902
PG32  18749.717703 -16100.221731   9610.930273    257.223249
PJ01 -31599.151248  27071.539981  11818.980825   -325.734223
PJ02 -19069.653754  24435.076710 -24176.955206     -2.327404
PJ03 -30871.742235  26172.934416  16911.992738     -1.888452
PJ07 -25425.913287  33641.625855    -11.247504      0.023958
PR01  17111.042151 -14324.282063 -12365.742474     59.861573
PR02  10594.447185 -21564.918265   8528.732400    421.281375
PR03  -2204.839043 -14208.580715  21101.882291     13.114460
PR04 -13420.943331   1255.666045  21685.800662     45.201217
PR05 -17230.329454  15958.806618   9994.228647     48.442510
PR07   2525.103429  13851.329786 -21240.045517    -35.341384
PR08  13490.709177  -1193.788486 -21555.512315    -51.564549
PR09   4138.626379  22388.902019 -11423.799415    126.694695
PR11  14489.968293  10363.268871  18245.771035    -19.821375
PR12   8929.286540  -6647.894323  22970.797627    121.665312
PR13  -2124.096468 -20816.025554  14567.906559    -37.254478
PR14 -11562.477360 -22617.146442  -2392.996310     50.055976
PR15 -14393.077784 -11338.643458 -17729.560111    106.312505
PR16  -8627.079755   7536.489892 -22827.010104     -2.725755
PR17 -13031.270577 -10207.481334 -19386.449413    316.477286
PR18 -24431.577374  -5041.414715  -5461.192960     31.653672
PR19 -22917.766242   2017.357200  11022.640906    -88.163033
PR20  -6661.355288   9369.967429  22784.845202   -408.880969
PR21  13921.230755  10020.210939  18889.045806   -117.314043
PR22      0.000000      0.000000      0.000000 999999.999999
PR23  18736.449644  -5377.866754 -16454.833027    298.486451
PR24      0.000000      0.000000      0.000000 999999.999999
PR26 -11087.441459   8438.062123  21372.433857   -400.046495
EOF
